{"type":"FeatureCollection","features":[{"type":"Feature","properties":{"id":"na"},"geometry":{"type":"Polygon","coordinates":[[[-168,8],[-140,7],[-124,15],[-117,24],[-105,26],[-97,18],[-83,20],[-82,24],[-80,31],[-73,44],[-62,49],[-53,56],[-60,68],[-75,72],[-96,75],[-121,72],[-141,70],[-160,62],[-168,50],[-168,8]]]}},{"type":"Feature","properties":{"id":"sa"},"geometry":{"type":"Polygon","coordinates":[[[-81,12],[-75,6],[-72,-6],[-67,-18],[-62,-30],[-56,-42],[-52,-53],[-45,-54],[-38,-47],[-35,-32],[-37,-18],[-43,-6],[-50,4],[-61,8],[-73,10],[-81,12]]]}},{"type":"Feature","properties":{"id":"euasia"},"geometry":{"type":"Polygon","coordinates":[[[-10,35],[-5,44],[5,51],[20,56],[40,60],[65,68],[95,73],[126,74],[150,68],[170,58],[176,48],[165,40],[150,34],[132,30],[115,22],[98,12],[82,10],[70,16],[55,24],[42,30],[30,34],[14,38],[0,40],[-10,35]]]}},{"type":"Feature","properties":{"id":"af"},"geometry":{"type":"Polygon","coordinates":[[[-18,35],[-6,37],[10,35],[24,31],[35,24],[43,12],[50,2],[47,-12],[40,-24],[31,-34],[20,-35],[8,-30],[0,-20],[-8,-5],[-12,10],[-16,22],[-18,35]]]}},{"type":"Feature","properties":{"id":"au"},"geometry":{"type":"Polygon","coordinates":[[[112,-11],[130,-10],[141,-16],[153,-24],[153,-35],[145,-43],[131,-44],[118,-39],[112,-30],[111,-20],[112,-11]]]}},{"type":"Feature","properties":{"id":"gl"},"geometry":{"type":"Polygon","coordinates":[[[-74,59],[-62,58],[-42,60],[-22,67],[-24,77],[-38,82],[-56,83],[-69,79],[-74,70],[-74,59]]]}}]}